{
  "type": "FeatureCollection",
  "features": [
    {
      "type": "Feature",
      "properties": {
        "norad_id": 66569,
        "name": "STARLINK-35835",
        "group": "last-30-days",
        "lat": 7.853320610366539,
        "lon": 134.29041292575042,
        "alt_km": 414.3243039422978,
        "timestamp": "2025-12-11T22:43:46.023801+00:00",
        "meta_object_name": "STARLINK-35835",
        "meta_object_id": "2025-268N",
        "meta_epoch": "2025-12-11T14:00:01.999872",
        "meta_mean_motion": 15.50648514,
        "meta_eccentricity": 0.00018499,
        "meta_inclination": 42.9997,
        "meta_ra_of_asc_node": 127.906,
        "meta_arg_of_pericenter": 269.3244,
        "meta_mean_anomaly": 229.6758,
        "meta_ephemeris_type": 0,
        "meta_classification_type": "U",
        "meta_norad_cat_id": 66569,
        "meta_element_set_no": 999,
        "meta_rev_at_epoch": 448,
        "meta_bstar": -0.0045655586,
        "meta_mean_motion_dot": -0.00260138,
        "meta_mean_motion_ddot": 0,
        "tle_line1": "1 66569U 25268N   25345.58335648 -.00260138  00000+0 -45656-2 0  9995",
        "tle_line2": "2 66569  42.9997 127.9060 0001849 269.3244 229.6758 15.50648514  4485"
      },
      "geometry": {
        "type": "Point",
        "coordinates": [
          134.29041292575042,
          7.853320610366539
        ]
      }
    },
    {
      "type": "Feature",
      "properties": {
        "norad_id": 66570,
        "name": "STARLINK-35834",
        "group": "last-30-days",
        "lat": 9.122094108899152,
        "lon": 135.69502067571202,
        "alt_km": 414.05645683133025,
        "timestamp": "2025-12-11T22:43:46.023810+00:00",
        "meta_object_name": "STARLINK-35834",
        "meta_object_id": "2025-268P",
        "meta_epoch": "2025-12-11T14:00:01.999872",
        "meta_mean_motion": 15.50620233,
        "meta_eccentricity": 0.00015931,
        "meta_inclination": 42.9999,
        "meta_ra_of_asc_node": 127.9005,
        "meta_arg_of_pericenter": 265.6479,
        "meta_mean_anomaly": 235.2253,
        "meta_ephemeris_type": 0,
        "meta_classification_type": "U",
        "meta_norad_cat_id": 66570,
        "meta_element_set_no": 999,
        "meta_rev_at_epoch": 448,
        "meta_bstar": -0.0026943172,
        "meta_mean_motion_dot": -0.00155536,
        "meta_mean_motion_ddot": 0,
        "tle_line1": "1 66570U 25268P   25345.58335648 -.00155536  00000+0 -26943-2 0  9990",
        "tle_line2": "2 66570  42.9999 127.9005 0001593 265.6479 235.2253 15.50620233  4484"
      },
      "geometry": {
        "type": "Point",
        "coordinates": [
          135.69502067571202,
          9.122094108899152
        ]
      }
    },
    {
      "type": "Feature",
      "properties": {
        "norad_id": 66571,
        "name": "STARLINK-35836",
        "group": "last-30-days",
        "lat": 10.421782965981006,
        "lon": 137.15196447983712,
        "alt_km": 413.98113649840434,
        "timestamp": "2025-12-11T22:43:46.023822+00:00",
        "meta_object_name": "STARLINK-35836",
        "meta_object_id": "2025-268Q",
        "meta_epoch": "2025-12-11T14:00:01.999872",
        "meta_mean_motion": 15.50662767,
        "meta_eccentricity": 0.0001567,
        "meta_inclination": 42.9998,
        "meta_ra_of_asc_node": 127.896,
        "meta_arg_of_pericenter": 267.5679,
        "meta_mean_anomaly": 235.2417,
        "meta_ephemeris_type": 0,
        "meta_classification_type": "U",
        "meta_norad_cat_id": 66571,
        "meta_element_set_no": 999,
        "meta_rev_at_epoch": 448,
        "meta_bstar": -0.0045937873,
        "meta_mean_motion_dot": -0.00261811,
        "meta_mean_motion_ddot": 0,
        "tle_line1": "1 66571U 25268Q   25345.58335648 -.00261811  00000+0 -45938-2 0  9990",
        "tle_line2": "2 66571  42.9998 127.8960 0001567 267.5679 235.2417 15.50662767  4487"
      },
      "geometry": {
        "type": "Point",
        "coordinates": [
          137.15196447983712,
          10.421782965981006
        ]
      }
    },
    {
      "type": "Feature",
      "properties": {
        "norad_id": 66572,
        "name": "STARLINK-35870",
        "group": "last-30-days",
        "lat": 11.701146654635378,
        "lon": 138.60648112185206,
        "alt_km": 413.7755724422832,
        "timestamp": "2025-12-11T22:43:46.023832+00:00",
        "meta_object_name": "STARLINK-35870",
        "meta_object_id": "2025-268R",
        "meta_epoch": "2025-12-11T14:00:01.999872",
        "meta_mean_motion": 15.50669314,
        "meta_eccentricity": 0.00014846,
        "meta_inclination": 42.9997,
        "meta_ra_of_asc_node": 127.8925,
        "meta_arg_of_pericenter": 270.3611,
        "meta_mean_anomaly": 234.3669,
        "meta_ephemeris_type": 0,
        "meta_classification_type": "U",
        "meta_norad_cat_id": 66572,
        "meta_element_set_no": 999,
        "meta_rev_at_epoch": 448,
        "meta_bstar": -0.0048703759,
        "meta_mean_motion_dot": -0.00277082,
        "meta_mean_motion_ddot": 0,
        "tle_line1": "1 66572U 25268R   25345.58335648 -.00277082  00000+0 -48704-2 0  9992",
        "tle_line2": "2 66572  42.9997 127.8925 0001484 270.3611 234.3669 15.50669314  4488"
      },
      "geometry": {
        "type": "Point",
        "coordinates": [
          138.60648112185206,
          11.701146654635378
        ]
      }
    },
    {
      "type": "Feature",
      "properties": {
        "norad_id": 66573,
        "name": "STARLINK-35650",
        "group": "last-30-days",
        "lat": 12.958652368414223,
        "lon": 140.05475661557966,
        "alt_km": 413.5369589183956,
        "timestamp": "2025-12-11T22:43:46.023844+00:00",
        "meta_object_name": "STARLINK-35650",
        "meta_object_id": "2025-268S",
        "meta_epoch": "2025-12-11T14:00:01.999872",
        "meta_mean_motion": 15.50618438,
        "meta_eccentricity": 0.00019398,
        "meta_inclination": 42.9999,
        "meta_ra_of_asc_node": 127.8862,
        "meta_arg_of_pericenter": 270.7769,
        "meta_mean_anomaly": 235.8428,
        "meta_ephemeris_type": 0,
        "meta_classification_type": "U",
        "meta_norad_cat_id": 66573,
        "meta_element_set_no": 999,
        "meta_rev_at_epoch": 448,
        "meta_bstar": -0.0024781271,
        "meta_mean_motion_dot": -0.00143302,
        "meta_mean_motion_ddot": 0,
        "tle_line1": "1 66573U 25268S   25345.58335648 -.00143302  00000+0 -24781-2 0  9999",
        "tle_line2": "2 66573  42.9999 127.8862 0001939 270.7769 235.8428 15.50618438  4484"
      },
      "geometry": {
        "type": "Point",
        "coordinates": [
          140.05475661557966,
          12.958652368414223
        ]
      }
    },
    {
      "type": "Feature",
      "properties": {
        "norad_id": 66574,
        "name": "STARLINK-35812",
        "group": "last-30-days",
        "lat": 14.230545322158639,
        "lon": 141.54607912853905,
        "alt_km": 413.1936691788078,
        "timestamp": "2025-12-11T22:43:46.023854+00:00",
        "meta_object_name": "STARLINK-35812",
        "meta_object_id": "2025-268T",
        "meta_epoch": "2025-12-11T14:00:01.999872",
        "meta_mean_motion": 15.50686652,
        "meta_eccentricity": 0.00013723,
        "meta_inclination": 42.9999,
        "meta_ra_of_asc_node": 127.8815,
        "meta_arg_of_pericenter": 275.7911,
        "meta_mean_anomaly": 232.7207,
        "meta_ephemeris_type": 0,
        "meta_classification_type": "U",
        "meta_norad_cat_id": 66574,
        "meta_element_set_no": 999,
        "meta_rev_at_epoch": 448,
        "meta_bstar": -0.0040835621,
        "meta_mean_motion_dot": -0.00233788,
        "meta_mean_motion_ddot": 0,
        "tle_line1": "1 66574U 25268T   25345.58335648 -.00233788  00000+0 -40836-2 0  9997",
        "tle_line2": "2 66574  42.9999 127.8815 0001372 275.7911 232.7207 15.50686652  4482"
      },
      "geometry": {
        "type": "Point",
        "coordinates": [
          141.54607912853905,
          14.230545322158639
        ]
      }
    },
    {
      "type": "Feature",
      "properties": {
        "norad_id": 66575,
        "name": "STARLINK-35810",
        "group": "last-30-days",
        "lat": 15.487141893390001,
        "lon": 143.04727682072095,
        "alt_km": 412.98630095440603,
        "timestamp": "2025-12-11T22:43:46.023864+00:00",
        "meta_object_name": "STARLINK-35810",
        "meta_object_id": "2025-268U",
        "meta_epoch": "2025-12-11T14:00:01.999872",
        "meta_mean_motion": 15.50683285,
        "meta_eccentricity": 0.00013802,
        "meta_inclination": 42.9999,
        "meta_ra_of_asc_node": 127.8768,
        "meta_arg_of_pericenter": 278.9262,
        "meta_mean_anomaly": 231.5106,
        "meta_ephemeris_type": 0,
        "meta_classification_type": "U",
        "meta_norad_cat_id": 66575,
        "meta_element_set_no": 999,
        "meta_rev_at_epoch": 448,
        "meta_bstar": -0.0040516431,
        "meta_mean_motion_dot": -0.00231988,
        "meta_mean_motion_ddot": 0,
        "tle_line1": "1 66575U 25268U   25345.58335648 -.00231988  00000+0 -40516-2 0  9993",
        "tle_line2": "2 66575  42.9999 127.8768 0001380 278.9262 231.5106 15.50683285  4487"
      },
      "geometry": {
        "type": "Point",
        "coordinates": [
          143.04727682072095,
          15.487141893390001
        ]
      }
    }
  ]
}